[
    {
        "Altitude(m)": 605470.7417415581,
        "Argument of Periapsis(deg)": 0.0,
        "Eccentricity": 0.0,
        "Inclination(deg)": 60.0,
        "Latitude(deg)": 27.988049461184428,
        "Longitude(deg)": -42.73709538500405,
        "Mean Anomaly(deg)": -212.7273,
        "RAAN(deg)": 255.0,
        "Satellite Name": "Test1 1131",
        "Satellite Number": 1131,
        "Semi-Major Axis(m)": 6980739.136638005,
        "Time(s)": 0
    },
    {
        "Altitude(m)": 605395.7803708324,
        "Argument of Periapsis(deg)": 0.00010418945913296404,
        "Eccentricity": 0.0,
        "Inclination(deg)": 60.0,
        "Latitude(deg)": 27.473740643471064,
        "Longitude(deg)": -42.383907188579705,
        "Mean Anomaly(deg)": -212.1071938545382,
        "RAAN(deg)": 254.99957995086027,
        "Satellite Name": "Test1 1131",
        "Satellite Number": 1131,
        "Semi-Major Axis(m)": 6980739.136638005,
        "Time(s)": 10
    }
]